ONEWEB-0167             
1 48064U 21025Y   25345.27014535  .00000193  00000+0  49296-3 0  9993
2 48064  87.8980 357.5874 0001749  67.6445 292.4869 13.13468879228907
ONEWEB-0166             
1 48065U 21025Z   25345.29298245 -.00000316  00000+0 -89965-3 0  9994
2 48065  87.8987 357.5390 0001590  95.8477 264.2833 13.13470990228983
ONEWEB-0151             
1 48066U 21025AA  25345.29467691 -.00000310  00000+0 -88475-3 0  9997
2 48066  87.8990 357.5651 0001788  86.8748 273.2586 13.13471127228920
ONEWEB-0170             
1 48067U 21025AB  25345.30313725 -.00000228  00000+0 -65850-3 0  9998
2 48067  87.8983 357.5682 0002171  85.4462 274.6915 13.13472506228880
ONEWEB-0168             
1 48068U 21025AC  25345.28791219  .00006406  00000+0  17504-1 0  9997
2 48068  87.9001 357.5559 0001714  85.8720 274.2605 13.13438835228899
ONEWEB-0173             
1 48069U 21025AD  25345.27944196 -.00000005  00000+0 -48534-4 0  9992
2 48069  87.8992 357.5657 0001493  80.1799 279.9499 13.13470868229138
ONEWEB-0171             
1 48070U 21025AE  25345.08815888  .00000060  00000+0  13068-3 0  9990
2 48070  87.8972 357.6262 0001764  87.7066 272.4265 13.13471810228925
ONEWEB-0172             
1 48071U 21025AF  25345.29636790 -.00000332  00000+0 -94284-3 0  9990
2 48071  87.8990 357.5666 0001706  86.0644 274.0680 13.13471576229843
ONEWEB-0174             
1 48072U 21025AG  25345.04921533  .00000009  00000+0 -10194-4 0  9995
2 48072  87.8979 357.6203 0001586  94.3873 265.7437 13.13471223229139
ONEWEB-0175             
1 48073U 21025AH  25345.30822031 -.00000308  00000+0 -87889-3 0  9995
2 48073  87.8985 357.5380 0001934  82.8277 277.3072 13.13471157228824
ONEWEB-0177             
1 48074U 21025AJ  25345.01536734  .00000201  00000+0  51432-3 0  9991
2 48074  87.8988 357.6156 0001513  91.9330 268.1973 13.13471512228973
ONEWEB-0178             
1 48075U 21025AK  25345.03412497  .00000342  00000+0  90122-3 0  9998
2 48075  87.8978 357.6534 0001684  82.2392 277.8928 13.13471129229021
ONEWEB-0108             
1 48076U 21025AL  25345.29807598 -.00000242  00000+0 -69636-3 0  9994
2 48076  87.8989 357.5493 0001865  98.1736 261.9604 13.13470681228987
ONEWEB-0169             
1 48077U 21025AM  25345.02551096  .00000347  00000+0  91651-3 0  9991
2 48077  87.8981 357.6243 0001798  98.6111 261.5222 13.13468516227605
ONEWEB-0176             
1 48210U 21031A   25344.93968464  .00002217  00000+0  59410-2 0  9991
2 48210  87.8989 327.2052 0001740  80.4519 279.6807 13.14522174223585
ONEWEB-0184             
1 48211U 21031B   25344.68440188 -.00000056  00000+0 -18634-3 0  9997
2 48211  87.9001 327.2366 0002218  64.6209 295.5151 13.14503963223529
