[{"OBJECT_NAME":"ONEWEB-0167","OBJECT_ID":"2021-025Y","EPOCH":"2025-12-11T06:29:00.558240","MEAN_MOTION":13.13468879,"ECCENTRICITY":0.00017493,"INCLINATION":87.898,"RA_OF_ASC_NODE":357.5874,"ARG_OF_PERICENTER":67.6445,"MEAN_ANOMALY":292.4869,"EPHEMERIS_TYPE":0,"CLASSIFICATION_TYPE":"U","NORAD_CAT_ID":48064,"ELEMENT_SET_NO":999,"REV_AT_EPOCH":22890,"BSTAR":0.00049296385,"MEAN_MOTION_DOT":1.93e-6,"MEAN_MOTION_DDOT":0},{"OBJECT_NAME":"ONEWEB-0166","OBJECT_ID":"2021-025Z","EPOCH":"2025-12-11T07:01:53.683680","MEAN_MOTION":13.1347099,"ECCENTRICITY":0.00015901,"INCLINATION":87.8987,"RA_OF_ASC_NODE":357.539,"ARG_OF_PERICENTER":95.8477,"MEAN_ANOMALY":264.2833,"EPHEMERIS_TYPE":0,"CLASSIFICATION_TYPE":"U","NORAD_CAT_ID":48065,"ELEMENT_SET_NO":999,"REV_AT_EPOCH":22898,"BSTAR":-0.00089965336,"MEAN_MOTION_DOT":-3.16e-6,"MEAN_MOTION_DDOT":0},{"OBJECT_NAME":"ONEWEB-0151","OBJECT_ID":"2021-025AA","EPOCH":"2025-12-11T07:04:20.085024","MEAN_MOTION":13.13471127,"ECCENTRICITY":0.00017884,"INCLINATION":87.899,"RA_OF_ASC_NODE":357.5651,"ARG_OF_PERICENTER":86.8748,"MEAN_ANOMALY":273.2586,"EPHEMERIS_TYPE":0,"CLASSIFICATION_TYPE":"U","NORAD_CAT_ID":48066,"ELEMENT_SET_NO":999,"REV_AT_EPOCH":22892,"BSTAR":-0.00088474504,"MEAN_MOTION_DOT":-3.1e-6,"MEAN_MOTION_DDOT":0},{"OBJECT_NAME":"ONEWEB-0170","OBJECT_ID":"2021-025AB","EPOCH":"2025-12-11T07:16:31.058400","MEAN_MOTION":13.13472506,"ECCENTRICITY":0.00021716,"INCLINATION":87.8983,"RA_OF_ASC_NODE":357.5682,"ARG_OF_PERICENTER":85.4462,"MEAN_ANOMALY":274.6915,"EPHEMERIS_TYPE":0,"CLASSIFICATION_TYPE":"U","NORAD_CAT_ID":48067,"ELEMENT_SET_NO":999,"REV_AT_EPOCH":22888,"BSTAR":-0.00065850112,"MEAN_MOTION_DOT":-2.28e-6,"MEAN_MOTION_DDOT":0},{"OBJECT_NAME":"ONEWEB-0168","OBJECT_ID":"2021-025AC","EPOCH":"2025-12-11T06:54:35.613216","MEAN_MOTION":13.13438835,"ECCENTRICITY":0.0001714,"INCLINATION":87.9001,"RA_OF_ASC_NODE":357.5559,"ARG_OF_PERICENTER":85.872,"MEAN_ANOMALY":274.2605,"EPHEMERIS_TYPE":0,"CLASSIFICATION_TYPE":"U","NORAD_CAT_ID":48068,"ELEMENT_SET_NO":999,"REV_AT_EPOCH":22889,"BSTAR":0.017503586,"MEAN_MOTION_DOT":6.406e-5,"MEAN_MOTION_DDOT":0},{"OBJECT_NAME":"ONEWEB-0173","OBJECT_ID":"2021-025AD","EPOCH":"2025-12-11T06:42:23.785344","MEAN_MOTION":13.13470868,"ECCENTRICITY":0.00014934,"INCLINATION":87.8992,"RA_OF_ASC_NODE":357.5657,"ARG_OF_PERICENTER":80.1799,"MEAN_ANOMALY":279.9499,"EPHEMERIS_TYPE":0,"CLASSIFICATION_TYPE":"U","NORAD_CAT_ID":48069,"ELEMENT_SET_NO":999,"REV_AT_EPOCH":22913,"BSTAR":-4.8533553e-5,"MEAN_MOTION_DOT":-5.0e-8,"MEAN_MOTION_DDOT":0},{"OBJECT_NAME":"ONEWEB-0171","OBJECT_ID":"2021-025AE","EPOCH":"2025-12-11T02:06:56.927232","MEAN_MOTION":13.1347181,"ECCENTRICITY":0.00017642,"INCLINATION":87.8972,"RA_OF_ASC_NODE":357.6262,"ARG_OF_PERICENTER":87.7066,"MEAN_ANOMALY":272.4265,"EPHEMERIS_TYPE":0,"CLASSIFICATION_TYPE":"U","NORAD_CAT_ID":48070,"ELEMENT_SET_NO":999,"REV_AT_EPOCH":22892,"BSTAR":0.00013067994,"MEAN_MOTION_DOT":6.0e-7,"MEAN_MOTION_DDOT":0},{"OBJECT_NAME":"ONEWEB-0172","OBJECT_ID":"2021-025AF","EPOCH":"2025-12-11T07:06:46.186560","MEAN_MOTION":13.13471576,"ECCENTRICITY":0.00017061,"INCLINATION":87.899,"RA_OF_ASC_NODE":357.5666,"ARG_OF_PERICENTER":86.0644,"MEAN_ANOMALY":274.068,"EPHEMERIS_TYPE":0,"CLASSIFICATION_TYPE":"U","NORAD_CAT_ID":48071,"ELEMENT_SET_NO":999,"REV_AT_EPOCH":22984,"BSTAR":-0.00094283861,"MEAN_MOTION_DOT":-3.32e-6,"MEAN_MOTION_DDOT":0},{"OBJECT_NAME":"ONEWEB-0174","OBJECT_ID":"2021-025AG","EPOCH":"2025-12-11T01:10:52.204512","MEAN_MOTION":13.13471223,"ECCENTRICITY":0.00015869,"INCLINATION":87.8979,"RA_OF_ASC_NODE":357.6203,"ARG_OF_PERICENTER":94.3873,"MEAN_ANOMALY":265.7437,"EPHEMERIS_TYPE":0,"CLASSIFICATION_TYPE":"U","NORAD_CAT_ID":48072,"ELEMENT_SET_NO":999,"REV_AT_EPOCH":22913,"BSTAR":-1.0193841e-5,"MEAN_MOTION_DOT":9.0e-8,"MEAN_MOTION_DDOT":0},{"OBJECT_NAME":"ONEWEB-0175","OBJECT_ID":"2021-025AH","EPOCH":"2025-12-11T07:23:50.234784","MEAN_MOTION":13.13471157,"ECCENTRICITY":0.00019341,"INCLINATION":87.8985,"RA_OF_ASC_NODE":357.538,"ARG_OF_PERICENTER":82.8277,"MEAN_ANOMALY":277.3072,"EPHEMERIS_TYPE":0,"CLASSIFICATION_TYPE":"U","NORAD_CAT_ID":48073,"ELEMENT_SET_NO":999,"REV_AT_EPOCH":22882,"BSTAR":-0.0008788875,"MEAN_MOTION_DOT":-3.08e-6,"MEAN_MOTION_DDOT":0},{"OBJECT_NAME":"ONEWEB-0177","OBJECT_ID":"2021-025AJ","EPOCH":"2025-12-11T00:22:07.738176","MEAN_MOTION":13.13471512,"ECCENTRICITY":0.00015135,"INCLINATION":87.8988,"RA_OF_ASC_NODE":357.6156,"ARG_OF_PERICENTER":91.933,"MEAN_ANOMALY":268.1973,"EPHEMERIS_TYPE":0,"CLASSIFICATION_TYPE":"U","NORAD_CAT_ID":48074,"ELEMENT_SET_NO":999,"REV_AT_EPOCH":22897,"BSTAR":0.00051431989,"MEAN_MOTION_DOT":2.01e-6,"MEAN_MOTION_DDOT":0},{"OBJECT_NAME":"ONEWEB-0178","OBJECT_ID":"2021-025AK","EPOCH":"2025-12-11T00:49:08.397408","MEAN_MOTION":13.13471129,"ECCENTRICITY":0.00016843,"INCLINATION":87.8978,"RA_OF_ASC_NODE":357.6534,"ARG_OF_PERICENTER":82.2392,"MEAN_ANOMALY":277.8928,"EPHEMERIS_TYPE":0,"CLASSIFICATION_TYPE":"U","NORAD_CAT_ID":48075,"ELEMENT_SET_NO":999,"REV_AT_EPOCH":22902,"BSTAR":0.00090122291,"MEAN_MOTION_DOT":3.42e-6,"MEAN_MOTION_DDOT":0},{"OBJECT_NAME":"ONEWEB-0108","OBJECT_ID":"2021-025AL","EPOCH":"2025-12-11T07:09:13.764672","MEAN_MOTION":13.13470681,"ECCENTRICITY":0.00018653,"INCLINATION":87.8989,"RA_OF_ASC_NODE":357.5493,"ARG_OF_PERICENTER":98.1736,"MEAN_ANOMALY":261.9604,"EPHEMERIS_TYPE":0,"CLASSIFICATION_TYPE":"U","NORAD_CAT_ID":48076,"ELEMENT_SET_NO":999,"REV_AT_EPOCH":22898,"BSTAR":-0.00069636083,"MEAN_MOTION_DOT":-2.42e-6,"MEAN_MOTION_DDOT":0},{"OBJECT_NAME":"ONEWEB-0169","OBJECT_ID":"2021-025AM","EPOCH":"2025-12-11T00:36:44.146944","MEAN_MOTION":13.13468516,"ECCENTRICITY":0.00017981,"INCLINATION":87.8981,"RA_OF_ASC_NODE":357.6243,"ARG_OF_PERICENTER":98.6111,"MEAN_ANOMALY":261.5222,"EPHEMERIS_TYPE":0,"CLASSIFICATION_TYPE":"U","NORAD_CAT_ID":48077,"ELEMENT_SET_NO":999,"REV_AT_EPOCH":22760,"BSTAR":0.00091650703,"MEAN_MOTION_DOT":3.47e-6,"MEAN_MOTION_DDOT":0},{"OBJECT_NAME":"ONEWEB-0176","OBJECT_ID":"2021-031A","EPOCH":"2025-12-10T22:33:08.752896","MEAN_MOTION":13.14522174,"ECCENTRICITY":0.000174,"INCLINATION":87.8989,"RA_OF_ASC_NODE":327.2052,"ARG_OF_PERICENTER":80.4519,"MEAN_ANOMALY":279.6807,"EPHEMERIS_TYPE":0,"CLASSIFICATION_TYPE":"U","NORAD_CAT_ID":48210,"ELEMENT_SET_NO":999,"REV_AT_EPOCH":22358,"BSTAR":0.005941,"MEAN_MOTION_DOT":2.217e-5,"MEAN_MOTION_DDOT":0},{"OBJECT_NAME":"ONEWEB-0184","OBJECT_ID":"2021-031B","EPOCH":"2025-12-10T16:25:32.322432","MEAN_MOTION":13.14503963,"ECCENTRICITY":0.00022181,"INCLINATION":87.9001,"RA_OF_ASC_NODE":327.2366,"ARG_OF_PERICENTER":64.6209,"MEAN_ANOMALY":295.5151,"EPHEMERIS_TYPE":0,"CLASSIFICATION_TYPE":"U","NORAD_CAT_ID":48211,"ELEMENT_SET_NO":999,"REV_AT_EPOCH":22352,"BSTAR":-0.000186336,"MEAN_MOTION_DOT":-5.6e-7,"MEAN_MOTION_DDOT":0}]
